ALOS-2                  
1 39766U 14029A   26077.98419284  .00001152  00000+0  16087-3 0  9997
2 39766  97.9196 176.4465 0001472  91.8295 268.3086 14.79538851638242
YAOGAN-29               
1 41038U 15069A   26077.97065574  .00000572  00000+0  77051-4 0  9999
2 41038  98.0130 106.4244 0001239  23.3752 336.7518 14.83006079557252
ASTRO-H (HITOMI)        
1 41337U 16012A   26077.88829061  .00002557  00000+0  14751-3 0  9991
2 41337  30.9995 297.1853 0009624  63.4554 296.7070 15.10064180553626
HXMT (HUIYAN)           
1 42758U 17034A   26077.99239925  .00004508  00000+0  22892-3 0  9993
2 42758  43.0152 324.9507 0033061 292.5498  67.1852 15.17588435483950
SAOCOM 1A               
1 43641U 18076A   26077.94195027  .00000779  00000+0  10440-3 0  9993
2 43641  97.8891 265.9839 0001478  87.2433 272.8949 14.82151328402733
H-2A R/B                
1 43682U 18084L   26077.88515263  .00015554  00000+0  36665-3 0  9992
2 43682  98.8718 297.2415 0024663 353.7505   6.3426 15.41726589407195
SAOCOM 1B               
1 46265U 20059A   26077.97315759  .00000314  00000+0  46043-4 0  9995
2 46265  97.8891 265.1127 0001476  86.9076 273.2306 14.82146559300129
CSS (TIANHE)            
1 48274U 21035A   26077.99285059  .00023982  00000+0  27867-3 0  9991
2 48274  41.4668 151.5347 0005931 330.5069  29.5435 15.61157181279064
COSMOS 2550             
1 48865U 21056A   26077.97242928 -.00000199  00000+0 -22924-6 0  9995
2 48865  67.1450  12.8027 0008044 270.0525  89.9708 15.33848882264882
CZ-2C R/B               
1 52794U 22058K   26077.83263475  .00028615  00000+0  40983-3 0  9992
2 52794  50.1877 271.2345 0041872 239.8584 119.8235 15.54873206211556
CZ-2C R/B               
1 54039U 22132E   26077.91535965  .00038000  00000+0  42045-3 0  9994
2 54039  97.2955  81.5178 0019658  62.1006 298.2240 15.62679867191818
GSLV R/B                
1 54149U 22138AN  26077.94668091  .00002098  00000+0  17961-3 0  9999
2 54149  87.3874 163.2640 0023937 115.7903 244.5802 14.96835853185319
