CCSDS_OMM_VERS = 2.0
CREATION_DATE  = 
ORIGINATOR     = 

OBJECT_NAME    = ALOS-2
OBJECT_ID      = 2014-029A
CENTER_NAME    = EARTH
REF_FRAME      = TEME
TIME_SYSTEM    = UTC
MEAN_ELEMENT_THEORY = SGP/SGP4

EPOCH          = 2026-03-18T23:37:14.261376
MEAN_MOTION    = 14.79538851
ECCENTRICITY   = .00014729
INCLINATION    = 97.9196
RA_OF_ASC_NODE = 176.4465
ARG_OF_PERICENTER = 91.8295
MEAN_ANOMALY   = 268.3086

EPHEMERIS_TYPE = 0
CLASSIFICATION_TYPE = U
NORAD_CAT_ID   = 39766
ELEMENT_SET_NO = 999
REV_AT_EPOCH   = 63824
BSTAR          = .16087081E-3
MEAN_MOTION_DOT = .1152E-4
MEAN_MOTION_DDOT = 0

CCSDS_OMM_VERS = 2.0
CREATION_DATE  = 
ORIGINATOR     = 

OBJECT_NAME    = YAOGAN-29
OBJECT_ID      = 2015-069A
CENTER_NAME    = EARTH
REF_FRAME      = TEME
TIME_SYSTEM    = UTC
MEAN_ELEMENT_THEORY = SGP/SGP4

EPOCH          = 2026-03-18T23:17:44.655936
MEAN_MOTION    = 14.83006079
ECCENTRICITY   = .00012395
INCLINATION    = 98.0130
RA_OF_ASC_NODE = 106.4244
ARG_OF_PERICENTER = 23.3752
MEAN_ANOMALY   = 336.7518

EPHEMERIS_TYPE = 0
CLASSIFICATION_TYPE = U
NORAD_CAT_ID   = 41038
ELEMENT_SET_NO = 999
REV_AT_EPOCH   = 55725
BSTAR          = .77051253E-4
MEAN_MOTION_DOT = .572E-5
MEAN_MOTION_DDOT = 0

CCSDS_OMM_VERS = 2.0
CREATION_DATE  = 
ORIGINATOR     = 

OBJECT_NAME    = ASTRO-H (HITOMI)
OBJECT_ID      = 2016-012A
CENTER_NAME    = EARTH
REF_FRAME      = TEME
TIME_SYSTEM    = UTC
MEAN_ELEMENT_THEORY = SGP/SGP4

EPOCH          = 2026-03-18T21:19:08.308704
MEAN_MOTION    = 15.10064180
ECCENTRICITY   = .00096241
INCLINATION    = 30.9995
RA_OF_ASC_NODE = 297.1853
ARG_OF_PERICENTER = 63.4554
MEAN_ANOMALY   = 296.7070

EPHEMERIS_TYPE = 0
CLASSIFICATION_TYPE = U
NORAD_CAT_ID   = 41337
ELEMENT_SET_NO = 999
REV_AT_EPOCH   = 55362
BSTAR          = .14751158E-3
MEAN_MOTION_DOT = .2557E-4
MEAN_MOTION_DDOT = 0

CCSDS_OMM_VERS = 2.0
CREATION_DATE  = 
ORIGINATOR     = 

OBJECT_NAME    = HXMT (HUIYAN)
OBJECT_ID      = 2017-034A
CENTER_NAME    = EARTH
REF_FRAME      = TEME
TIME_SYSTEM    = UTC
MEAN_ELEMENT_THEORY = SGP/SGP4

EPOCH          = 2026-03-18T23:49:03.295200
MEAN_MOTION    = 15.17588435
ECCENTRICITY   = .00330619
INCLINATION    = 43.0152
RA_OF_ASC_NODE = 324.9507
ARG_OF_PERICENTER = 292.5498
MEAN_ANOMALY   = 67.1852

EPHEMERIS_TYPE = 0
CLASSIFICATION_TYPE = U
NORAD_CAT_ID   = 42758
ELEMENT_SET_NO = 999
REV_AT_EPOCH   = 48395
BSTAR          = .22892224E-3
MEAN_MOTION_DOT = .4508E-4
MEAN_MOTION_DDOT = 0

CCSDS_OMM_VERS = 2.0
CREATION_DATE  = 
ORIGINATOR     = 

OBJECT_NAME    = SAOCOM 1A
OBJECT_ID      = 2018-076A
CENTER_NAME    = EARTH
REF_FRAME      = TEME
TIME_SYSTEM    = UTC
MEAN_ELEMENT_THEORY = SGP/SGP4

EPOCH          = 2026-03-18T22:36:24.503328
MEAN_MOTION    = 14.82151328
ECCENTRICITY   = .0001478
INCLINATION    = 97.8891
RA_OF_ASC_NODE = 265.9839
ARG_OF_PERICENTER = 87.2433
MEAN_ANOMALY   = 272.8949

EPHEMERIS_TYPE = 0
CLASSIFICATION_TYPE = U
NORAD_CAT_ID   = 43641
ELEMENT_SET_NO = 999
REV_AT_EPOCH   = 40273
BSTAR          = .10440409E-3
MEAN_MOTION_DOT = .779E-5
MEAN_MOTION_DDOT = 0

CCSDS_OMM_VERS = 2.0
CREATION_DATE  = 
ORIGINATOR     = 

OBJECT_NAME    = H-2A R/B
OBJECT_ID      = 2018-084L
CENTER_NAME    = EARTH
REF_FRAME      = TEME
TIME_SYSTEM    = UTC
MEAN_ELEMENT_THEORY = SGP/SGP4

EPOCH          = 2026-03-18T21:14:37.187232
MEAN_MOTION    = 15.41726589
ECCENTRICITY   = .00246634
INCLINATION    = 98.8718
RA_OF_ASC_NODE = 297.2415
ARG_OF_PERICENTER = 353.7505
MEAN_ANOMALY   = 6.3426

EPHEMERIS_TYPE = 0
CLASSIFICATION_TYPE = U
NORAD_CAT_ID   = 43682
ELEMENT_SET_NO = 999
REV_AT_EPOCH   = 40719
BSTAR          = .36665035E-3
MEAN_MOTION_DOT = .15554E-3
MEAN_MOTION_DDOT = 0

CCSDS_OMM_VERS = 2.0
CREATION_DATE  = 
ORIGINATOR     = 

OBJECT_NAME    = SAOCOM 1B
OBJECT_ID      = 2020-059A
CENTER_NAME    = EARTH
REF_FRAME      = TEME
TIME_SYSTEM    = UTC
MEAN_ELEMENT_THEORY = SGP/SGP4

EPOCH          = 2026-03-18T23:21:20.815776
MEAN_MOTION    = 14.82146559
ECCENTRICITY   = .00014765
INCLINATION    = 97.8891
RA_OF_ASC_NODE = 265.1127
ARG_OF_PERICENTER = 86.9076
MEAN_ANOMALY   = 273.2306

EPHEMERIS_TYPE = 0
CLASSIFICATION_TYPE = U
NORAD_CAT_ID   = 46265
ELEMENT_SET_NO = 999
REV_AT_EPOCH   = 30012
BSTAR          = .46043216E-4
MEAN_MOTION_DOT = .314E-5
MEAN_MOTION_DDOT = 0

CCSDS_OMM_VERS = 2.0
CREATION_DATE  = 
ORIGINATOR     = 

OBJECT_NAME    = CSS (TIANHE)
OBJECT_ID      = 2021-035A
CENTER_NAME    = EARTH
REF_FRAME      = TEME
TIME_SYSTEM    = UTC
MEAN_ELEMENT_THEORY = SGP/SGP4

EPOCH          = 2026-03-18T23:49:42.290976
MEAN_MOTION    = 15.61157181
ECCENTRICITY   = .00059316
INCLINATION    = 41.4668
RA_OF_ASC_NODE = 151.5347
ARG_OF_PERICENTER = 330.5069
MEAN_ANOMALY   = 29.5435

EPHEMERIS_TYPE = 0
CLASSIFICATION_TYPE = U
NORAD_CAT_ID   = 48274
ELEMENT_SET_NO = 999
REV_AT_EPOCH   = 27906
BSTAR          = .27867217E-3
MEAN_MOTION_DOT = .23982E-3
MEAN_MOTION_DDOT = 0

CCSDS_OMM_VERS = 2.0
CREATION_DATE  = 
ORIGINATOR     = 

OBJECT_NAME    = COSMOS 2550
OBJECT_ID      = 2021-056A
CENTER_NAME    = EARTH
REF_FRAME      = TEME
TIME_SYSTEM    = UTC
MEAN_ELEMENT_THEORY = SGP/SGP4

EPOCH          = 2026-03-18T23:20:17.889792
MEAN_MOTION    = 15.33848882
ECCENTRICITY   = .00080446
INCLINATION    = 67.1450
RA_OF_ASC_NODE = 12.8027
ARG_OF_PERICENTER = 270.0525
MEAN_ANOMALY   = 89.9708

EPHEMERIS_TYPE = 0
CLASSIFICATION_TYPE = U
NORAD_CAT_ID   = 48865
ELEMENT_SET_NO = 999
REV_AT_EPOCH   = 26488
BSTAR          = -.229237E-6
MEAN_MOTION_DOT = -.199E-5
MEAN_MOTION_DDOT = 0

CCSDS_OMM_VERS = 2.0
CREATION_DATE  = 
ORIGINATOR     = 

OBJECT_NAME    = CZ-2C R/B
OBJECT_ID      = 2022-058K
CENTER_NAME    = EARTH
REF_FRAME      = TEME
TIME_SYSTEM    = UTC
MEAN_ELEMENT_THEORY = SGP/SGP4

EPOCH          = 2026-03-18T19:58:59.642400
MEAN_MOTION    = 15.54873206
ECCENTRICITY   = .00418728
INCLINATION    = 50.1877
RA_OF_ASC_NODE = 271.2345
ARG_OF_PERICENTER = 239.8584
MEAN_ANOMALY   = 119.8235

EPHEMERIS_TYPE = 0
CLASSIFICATION_TYPE = U
NORAD_CAT_ID   = 52794
ELEMENT_SET_NO = 999
REV_AT_EPOCH   = 21155
BSTAR          = .40983175E-3
MEAN_MOTION_DOT = .28615E-3
MEAN_MOTION_DDOT = 0

CCSDS_OMM_VERS = 2.0
CREATION_DATE  = 
ORIGINATOR     = 

OBJECT_NAME    = CZ-2C R/B
OBJECT_ID      = 2022-132E
CENTER_NAME    = EARTH
REF_FRAME      = TEME
TIME_SYSTEM    = UTC
MEAN_ELEMENT_THEORY = SGP/SGP4

EPOCH          = 2026-03-18T21:58:07.073760
MEAN_MOTION    = 15.62679867
ECCENTRICITY   = .0019658
INCLINATION    = 97.2955
RA_OF_ASC_NODE = 81.5178
ARG_OF_PERICENTER = 62.1006
MEAN_ANOMALY   = 298.2240

EPHEMERIS_TYPE = 0
CLASSIFICATION_TYPE = U
NORAD_CAT_ID   = 54039
ELEMENT_SET_NO = 999
REV_AT_EPOCH   = 19181
BSTAR          = .42044592E-3
MEAN_MOTION_DOT = .38E-3
MEAN_MOTION_DDOT = 0

CCSDS_OMM_VERS = 2.0
CREATION_DATE  = 
ORIGINATOR     = 

OBJECT_NAME    = GSLV R/B
OBJECT_ID      = 2022-138AN
CENTER_NAME    = EARTH
REF_FRAME      = TEME
TIME_SYSTEM    = UTC
MEAN_ELEMENT_THEORY = SGP/SGP4

EPOCH          = 2026-03-18T22:43:13.230624
MEAN_MOTION    = 14.96835853
ECCENTRICITY   = .00239379
INCLINATION    = 87.3874
RA_OF_ASC_NODE = 163.2640
ARG_OF_PERICENTER = 115.7903
MEAN_ANOMALY   = 244.5802

EPHEMERIS_TYPE = 0
CLASSIFICATION_TYPE = U
NORAD_CAT_ID   = 54149
ELEMENT_SET_NO = 999
REV_AT_EPOCH   = 18531
BSTAR          = .17960726E-3
MEAN_MOTION_DOT = .2098E-4
MEAN_MOTION_DDOT = 0

